start=new Date('2022-11-21T00:00:00.000Z').valueOf();
sats=[{"TLE_LINE2":"2 45713  53.0567  65.9880 0001349  88.2058 271.9085 15.06399638137241","ELEMENT_SET_NO":"999","BSTAR":"0.00001569700000","LAUNCH_DATE":"2020-06-04","NORAD_CAT_ID":"45713","APOAPSIS":"548.149","REF_FRAME":"TEME","INCLINATION":"53.0567","CLASSIFICATION_TYPE":"U","TLE_LINE1":"1 45713U 20035BJ  22324.70596644 -.00000048  00000-0  15697-4 0  9999","GP_ID":"218358138","PERIAPSIS":"546.280","MEAN_ANOMALY":"271.9085","RCS_SIZE":"LARGE","MEAN_MOTION":"15.06399638","SITE":"AFETR","DECAY_DATE":null,"CENTER_NAME":"EARTH","SEMIMAJOR_AXIS":"6925.350","OBJECT_NAME":"STARLINK-1436","EPOCH":"2022-11-20T16:56:35.500416","MEAN_MOTION_DDOT":"0.0000000000000","MEAN_MOTION_DOT":"-0.00000048","PERIOD":"95.592","MEAN_ELEMENT_THEORY":"SGP4","OBJECT_TYPE":"PAYLOAD","RA_OF_ASC_NODE":"65.9880","OBJECT_ID":"2020-035BJ","ARG_OF_PERICENTER":"88.2058","EPHEMERIS_TYPE":"0","COUNTRY_CODE":"US","FILE":"3665715","TIME_SYSTEM":"UTC","ECCENTRICITY":"0.00013490","REV_AT_EPOCH":"13724"},{"TLE_LINE1":"1 45714U 20035BK  22324.49771298  .00001846  00000-0  14277-3 0  9994","CLASSIFICATION_TYPE":"U","GP_ID":"218329895","PERIAPSIS":"546.252","RCS_SIZE":"LARGE","MEAN_ANOMALY":"274.1433","SITE":"AFETR","MEAN_MOTION":"15.06407829","DECAY_DATE":null,"BSTAR":"0.00014277000000","ELEMENT_SET_NO":"999","TLE_LINE2":"2 45714  53.0558  46.9398 0001354  85.9711 274.1433 15.06407829137098","LAUNCH_DATE":"2020-06-04","NORAD_CAT_ID":"45714","APOAPSIS":"548.127","REF_FRAME":"TEME","INCLINATION":"53.0558","RA_OF_ASC_NODE":"46.9398","OBJECT_ID":"2020-035BK","ARG_OF_PERICENTER":"85.9711","EPHEMERIS_TYPE":"0","COUNTRY_CODE":"US","FILE":"3665331","TIME_SYSTEM":"UTC","REV_AT_EPOCH":"13709","ECCENTRICITY":"0.00013540","CENTER_NAME":"EARTH","MEAN_MOTION_DOT":"0.00001846","MEAN_MOTION_DDOT":"0.0000000000000","EPOCH":"2022-11-20T11:56:42.401472","OBJECT_NAME":"STARLINK-1437","SEMIMAJOR_AXIS":"6925.325","PERIOD":"95.592","MEAN_ELEMENT_THEORY":"SGP4","OBJECT_TYPE":"PAYLOAD"},{"GP_ID":"218357139","TLE_LINE1":"1 45730U 20038A   22324.77414912  .00001794  00000-0  13929-3 0  9998","CLASSIFICATION_TYPE":"U","PERIAPSIS":"545.887","MEAN_ANOMALY":"313.1490","RCS_SIZE":"LARGE","DECAY_DATE":null,"MEAN_MOTION":"15.06400926","SITE":"AFETR","ELEMENT_SET_NO":"999","TLE_LINE2":"2 45730  53.0533 245.6951 0001911  46.9659 313.1490 15.06400926134599","BSTAR":"0.00013929000000","NORAD_CAT_ID":"45730","LAUNCH_DATE":"2020-06-13","REF_FRAME":"TEME","APOAPSIS":"548.534","INCLINATION":"53.0533","RA_OF_ASC_NODE":"245.6951","ARG_OF_PERICENTER":"46.9659","EPHEMERIS_TYPE":"0","OBJECT_ID":"2020-038A","FILE":"3665715","COUNTRY_CODE":"US","REV_AT_EPOCH":"13459","ECCENTRICITY":"0.00019110","TIME_SYSTEM":"UTC","CENTER_NAME":"EARTH","PERIOD":"95.592","OBJECT_NAME":"STARLINK-1461","SEMIMAJOR_AXIS":"6925.346","MEAN_MOTION_DDOT":"0.0000000000000","MEAN_MOTION_DOT":"0.00001794","EPOCH":"2022-11-20T18:34:46.483968","MEAN_ELEMENT_THEORY":"SGP4","OBJECT_TYPE":"PAYLOAD"},{"OBJECT_NAME":"STARLINK-1465","SEMIMAJOR_AXIS":"6925.344","MEAN_MOTION_DDOT":"0.0000000000000","EPOCH":"2022-11-20T18:56:01.126752","MEAN_MOTION_DOT":"0.00002438","PERIOD":"95.592","CENTER_NAME":"EARTH","OBJECT_TYPE":"PAYLOAD","MEAN_ELEMENT_THEORY":"SGP4","OBJECT_ID":"2020-038B","EPHEMERIS_TYPE":"0","ARG_OF_PERICENTER":"51.0786","RA_OF_ASC_NODE":"245.6360","TIME_SYSTEM":"UTC","REV_AT_EPOCH":"13458","ECCENTRICITY":"0.00023290","COUNTRY_CODE":"US","FILE":"3665715","LAUNCH_DATE":"2020-06-13","NORAD_CAT_ID":"45731","ELEMENT_SET_NO":"999","TLE_LINE2":"2 45731  53.0547 245.6360 0002329  51.0786 309.0411 15.06401447134586","BSTAR":"0.00018253000000","INCLINATION":"53.0547","APOAPSIS":"548.822","REF_FRAME":"TEME","PERIAPSIS":"545.596","CLASSIFICATION_TYPE":"U","TLE_LINE1":"1 45731U 20038B   22324.78890193  .00002438  00000-0  18253-3 0  9990","GP_ID":"218357888","MEAN_MOTION":"15.06401447","SITE":"AFETR","DECAY_DATE":null,"MEAN_ANOMALY":"309.0411","RCS_SIZE":"LARGE"},{"DECAY_DATE":null,"SITE":"AFETR","MEAN_MOTION":"15.06396634","RCS_SIZE":"LARGE","MEAN_ANOMALY":"312.6021","PERIAPSIS":"545.943","GP_ID":"218358139","CLASSIFICATION_TYPE":"U","TLE_LINE1":"1 45732U 20038C   22324.77784813  .00003273  00000-0  23857-3 0  9995","INCLINATION":"53.0558","REF_FRAME":"TEME","APOAPSIS":"548.505","NORAD_CAT_ID":"45732","LAUNCH_DATE":"2020-06-13","BSTAR":"0.00023857000000","ELEMENT_SET_NO":"999","TLE_LINE2":"2 45732  53.0558 245.6875 0001850  47.5124 312.6021 15.06396634134582","REV_AT_EPOCH":"13458","ECCENTRICITY":"0.00018500","TIME_SYSTEM":"UTC","FILE":"3665715","COUNTRY_CODE":"US","EPHEMERIS_TYPE":"0","ARG_OF_PERICENTER":"47.5124","OBJECT_ID":"2020-038C","RA_OF_ASC_NODE":"245.6875","OBJECT_TYPE":"PAYLOAD","MEAN_ELEMENT_THEORY":"SGP4","PERIOD":"95.592","MEAN_MOTION_DOT":"0.00003273","MEAN_MOTION_DDOT":"0.0000000000000","EPOCH":"2022-11-20T18:40:06.078432","OBJECT_NAME":"STARLINK-1466","SEMIMAJOR_AXIS":"6925.359","CENTER_NAME":"EARTH"},{"PERIAPSIS":"534.281","GP_ID":"218288112","TLE_LINE1":"1 45733U 20038D   22324.19961851  .00016976  00000-0  10485-2 0  9997","CLASSIFICATION_TYPE":"U","DECAY_DATE":null,"MEAN_MOTION":"15.09993343","SITE":"AFETR","MEAN_ANOMALY":"258.4005","RCS_SIZE":"LARGE","NORAD_CAT_ID":"45733","LAUNCH_DATE":"2020-06-13","ELEMENT_SET_NO":"999","TLE_LINE2":"2 45733  53.0529 246.9878 0002808 101.7301 258.4005 15.09993343134517","BSTAR":"0.00104850000000","INCLINATION":"53.0529","REF_FRAME":"TEME","APOAPSIS":"538.164","ARG_OF_PERICENTER":"101.7301","EPHEMERIS_TYPE":"0","OBJECT_ID":"2020-038D","RA_OF_ASC_NODE":"246.9878","ECCENTRICITY":"0.00028080","REV_AT_EPOCH":"13451","TIME_SYSTEM":"UTC","FILE":"3664760","COUNTRY_CODE":"US","PERIOD":"95.365","OBJECT_NAME":"STARLINK-1467","SEMIMAJOR_AXIS":"6914.357","MEAN_MOTION_DDOT":"0.0000000000000","MEAN_MOTION_DOT":"0.00016976","EPOCH":"2022-11-20T04:47:27.039264","CENTER_NAME":"EARTH","OBJECT_TYPE":"PAYLOAD","MEAN_ELEMENT_THEORY":"SGP4"},{"BSTAR":"0.00092254000000","ELEMENT_SET_NO":"999","TLE_LINE2":"2 45734  53.0545 247.6870 0002616  97.0763 263.0525 15.09198916134503","NORAD_CAT_ID":"45734","LAUNCH_DATE":"2020-06-13","REF_FRAME":"TEME","APOAPSIS":"540.458","INCLINATION":"53.0545","GP_ID":"218288862","TLE_LINE1":"1 45734U 20038E   22324.16339553  .00014571  00000-0  92254-3 0  9997","CLASSIFICATION_TYPE":"U","PERIAPSIS":"536.839","RCS_SIZE":"LARGE","MEAN_ANOMALY":"263.0525","DECAY_DATE":null,"SITE":"AFETR","MEAN_MOTION":"15.09198916","CENTER_NAME":"EARTH","PERIOD":"95.415","MEAN_MOTION_DDOT":"0.0000000000000","MEAN_MOTION_DOT":"0.00014571","EPOCH":"2022-11-20T03:55:17.373792","OBJECT_NAME":"STARLINK-1468","SEMIMAJOR_AXIS":"6916.784","MEAN_ELEMENT_THEORY":"SGP4","OBJECT_TYPE":"PAYLOAD","RA_OF_ASC_NODE":"247.6870","ARG_OF_PERICENTER":"97.0763","EPHEMERIS_TYPE":"0","OBJECT_ID":"2020-038E","FILE":"3664760","COUNTRY_CODE":"US","REV_AT_EPOCH":"13450","ECCENTRICITY":"0.00026160","TIME_SYSTEM":"UTC"},{"ARG_OF_PERICENTER":"66.1361","EPHEMERIS_TYPE":"0","OBJECT_ID":"2020-038F","RA_OF_ASC_NODE":"245.5675","REV_AT_EPOCH":"13458","ECCENTRICITY":"0.00014540","TIME_SYSTEM":"UTC","FILE":"3665715","COUNTRY_CODE":"US","PERIOD":"95.592","OBJECT_NAME":"STARLINK-1471","SEMIMAJOR_AXIS":"6925.364","MEAN_MOTION_DOT":"-0.00000913","MEAN_MOTION_DDOT":"0.0000000000000","EPOCH":"2022-11-20T19:17:14.910720","CENTER_NAME":"EARTH","OBJECT_TYPE":"PAYLOAD","MEAN_ELEMENT_THEORY":"SGP4","PERIAPSIS":"546.222","GP_ID":"218357390","CLASSIFICATION_TYPE":"U","TLE_LINE1":"1 45735U 20038F   22324.80364480 -.00000913  00000-0 -42393-4 0  9993","DECAY_DATE":null,"MEAN_MOTION":"15.06394918","SITE":"AFETR","MEAN_ANOMALY":"293.9780","RCS_SIZE":"LARGE","NORAD_CAT_ID":"45735","LAUNCH_DATE":"2020-06-13","TLE_LINE2":"2 45735  53.0538 245.5675 0001454  66.1361 293.9780 15.06394918134586","ELEMENT_SET_NO":"999","BSTAR":"-0.00004239300000","INCLINATION":"53.0538","REF_FRAME":"TEME","APOAPSIS":"548.236"},{"ECCENTRICITY":"0.00048310","REV_AT_EPOCH":"13552","TIME_SYSTEM":"UTC","FILE":"3665715","COUNTRY_CODE":"US","EPHEMERIS_TYPE":"0","ARG_OF_PERICENTER":"107.3999","OBJECT_ID":"2020-038G","RA_OF_ASC_NODE":"180.1911","OBJECT_TYPE":"PAYLOAD","MEAN_ELEMENT_THEORY":"SGP4","PERIOD":"93.338","OBJECT_NAME":"STARLINK-1472","SEMIMAJOR_AXIS":"6816.066","EPOCH":"2022-11-20T20:25:13.109088","MEAN_MOTION_DDOT":"0.0000000000000","MEAN_MOTION_DOT":"0.00011676","CENTER_NAME":"EARTH","DECAY_DATE":null,"MEAN_MOTION":"15.42773171","SITE":"AFETR","MEAN_ANOMALY":"252.7535","RCS_SIZE":"LARGE","PERIAPSIS":"434.638","GP_ID":"218358639","TLE_LINE1":"1 45736U 20038G   22324.85084617  .00011676  00000-0  27172-3 0  9993","CLASSIFICATION_TYPE":"U","INCLINATION":"53.0608","REF_FRAME":"TEME","APOAPSIS":"441.224","NORAD_CAT_ID":"45736","LAUNCH_DATE":"2020-06-13","TLE_LINE2":"2 45736  53.0608 180.1911 0004831 107.3999 252.7535 15.42773171135527","ELEMENT_SET_NO":"999","BSTAR":"0.00027172000000"},{"CENTER_NAME":"EARTH","MEAN_MOTION_DDOT":"0.0000000000000","MEAN_MOTION_DOT":"-0.00000437","EPOCH":"2022-11-20T12:39:10.328832","OBJECT_NAME":"STARLINK-1474","SEMIMAJOR_AXIS":"6925.368","PERIOD":"95.593","MEAN_ELEMENT_THEORY":"SGP4","OBJECT_TYPE":"PAYLOAD","RA_OF_ASC_NODE":"246.8147","OBJECT_ID":"2020-038J","ARG_OF_PERICENTER":"62.8493","EPHEMERIS_TYPE":"0","COUNTRY_CODE":"US","FILE":"3664760","TIME_SYSTEM":"UTC","REV_AT_EPOCH":"13454","ECCENTRICITY":"0.00016700","BSTAR":"-0.00001047000000","TLE_LINE2":"2 45738  53.0541 246.8147 0001670  62.8493 297.2666 15.06393765134545","ELEMENT_SET_NO":"999","LAUNCH_DATE":"2020-06-13","NORAD_CAT_ID":"45738","APOAPSIS":"548.389","REF_FRAME":"TEME","INCLINATION":"53.0541","CLASSIFICATION_TYPE":"U","TLE_LINE1":"1 45738U 20038J   22324.52720288 -.00000437  00000-0 -10470-4 0  9999","GP_ID":"218288612","PERIAPSIS":"546.076","RCS_SIZE":"LARGE","MEAN_ANOMALY":"297.2666","SITE":"AFETR","MEAN_MOTION":"15.06393765","DECAY_DATE":null}];
